[{"OBJECT_NAME":"STARLINK-30124","OBJECT_ID":"2023-067C","EPOCH":"2023-11-20T06:19:33.320640","MEAN_MOTION":15.02539298,"ECCENTRICITY":0.0001267,"INCLINATION":43.0027,"RA_OF_ASC_NODE":161.4645,"ARG_OF_PERICENTER":269.1294,"MEAN_ANOMALY":90.9403,"EPHEMERIS_TYPE":0,"CLASSIFICATION_TYPE":"U","NORAD_CAT_ID":56690,"ELEMENT_SET_NO":999,"REV_AT_EPOCH":2923,"BSTAR":7.5709e-5,"MEAN_MOTION_DOT":8.19e-6,"MEAN_MOTION_DDOT":0},{"OBJECT_NAME":"STARLINK-30087","OBJECT_ID":"2023-067D","EPOCH":"2023-11-20T12:59:21.747552","MEAN_MOTION":15.14645936,"ECCENTRICITY":0.0011941,"INCLINATION":43.0009,"RA_OF_ASC_NODE":154.2028,"ARG_OF_PERICENTER":280.9047,"MEAN_ANOMALY":79.0456,"EPHEMERIS_TYPE":0,"CLASSIFICATION_TYPE":"U","NORAD_CAT_ID":56691,"ELEMENT_SET_NO":999,"REV_AT_EPOCH":2934,"BSTAR":0.0012617,"MEAN_MOTION_DOT":0.00023633,"MEAN_MOTION_DDOT":0},{"OBJECT_NAME":"STARLINK-30036","OBJECT_ID":"2023-067E","EPOCH":"2023-11-20T12:32:52.859328","MEAN_MOTION":15.02536901,"ECCENTRICITY":0.0001212,"INCLINATION":43.0029,"RA_OF_ASC_NODE":159.9869,"ARG_OF_PERICENTER":272.826,"MEAN_ANOMALY":87.2444,"EPHEMERIS_TYPE":0,"CLASSIFICATION_TYPE":"U","NORAD_CAT_ID":56692,"ELEMENT_SET_NO":999,"REV_AT_EPOCH":2814,"BSTAR":0.00010388,"MEAN_MOTION_DOT":1.2e-5,"MEAN_MOTION_DDOT":0},{"OBJECT_NAME":"STARLINK-30067","OBJECT_ID":"2023-067F","EPOCH":"2023-11-20T06:00:22.809600","MEAN_MOTION":15.02539538,"ECCENTRICITY":0.0001232,"INCLINATION":43.0032,"RA_OF_ASC_NODE":161.3818,"ARG_OF_PERICENTER":270.8288,"MEAN_ANOMALY":89.2413,"EPHEMERIS_TYPE":0,"CLASSIFICATION_TYPE":"U","NORAD_CAT_ID":56693,"ELEMENT_SET_NO":999,"REV_AT_EPOCH":2923,"BSTAR":9.9353e-5,"MEAN_MOTION_DOT":1.139e-5,"MEAN_MOTION_DDOT":0},{"OBJECT_NAME":"STARLINK-30126","OBJECT_ID":"2023-067G","EPOCH":"2023-11-20T12:28:05.390976","MEAN_MOTION":15.02538216,"ECCENTRICITY":0.0001218,"INCLINATION":43.0032,"RA_OF_ASC_NODE":159.9616,"ARG_OF_PERICENTER":268.6891,"MEAN_ANOMALY":91.3812,"EPHEMERIS_TYPE":0,"CLASSIFICATION_TYPE":"U","NORAD_CAT_ID":56694,"ELEMENT_SET_NO":999,"REV_AT_EPOCH":2927,"BSTAR":6.6868e-5,"MEAN_MOTION_DOT":7.0e-6,"MEAN_MOTION_DDOT":0},{"OBJECT_NAME":"STARLINK-30121","OBJECT_ID":"2023-067H","EPOCH":"2023-11-19T23:32:40.009632","MEAN_MOTION":15.0254695,"ECCENTRICITY":0.0001325,"INCLINATION":43.0014,"RA_OF_ASC_NODE":162.7862,"ARG_OF_PERICENTER":259.6509,"MEAN_ANOMALY":100.4184,"EPHEMERIS_TYPE":0,"CLASSIFICATION_TYPE":"U","NORAD_CAT_ID":56695,"ELEMENT_SET_NO":999,"REV_AT_EPOCH":2919,"BSTAR":-1.1707e-5,"MEAN_MOTION_DOT":-3.62e-6,"MEAN_MOTION_DDOT":0},{"OBJECT_NAME":"STARLINK-30130","OBJECT_ID":"2023-067K","EPOCH":"2023-11-20T13:15:51.818976","MEAN_MOTION":15.0254091,"ECCENTRICITY":0.0001238,"INCLINATION":43.0021,"RA_OF_ASC_NODE":159.3472,"ARG_OF_PERICENTER":273.0011,"MEAN_ANOMALY":87.069,"EPHEMERIS_TYPE":0,"CLASSIFICATION_TYPE":"U","NORAD_CAT_ID":56697,"ELEMENT_SET_NO":999,"REV_AT_EPOCH":2902,"BSTAR":0.00017259,"MEAN_MOTION_DOT":2.129e-5,"MEAN_MOTION_DDOT":0},{"OBJECT_NAME":"STARLINK-30068","OBJECT_ID":"2023-067L","EPOCH":"2023-11-20T11:50:05.793504","MEAN_MOTION":15.02547759,"ECCENTRICITY":0.0001192,"INCLINATION":43.0032,"RA_OF_ASC_NODE":146.7706,"ARG_OF_PERICENTER":269.1787,"MEAN_ANOMALY":90.8918,"EPHEMERIS_TYPE":0,"CLASSIFICATION_TYPE":"U","NORAD_CAT_ID":56698,"ELEMENT_SET_NO":999,"REV_AT_EPOCH":2916,"BSTAR":-3.1804e-5,"MEAN_MOTION_DOT":-6.33e-6,"MEAN_MOTION_DDOT":0},{"OBJECT_NAME":"STARLINK-30127","OBJECT_ID":"2023-067M","EPOCH":"2023-11-20T12:13:41.892960","MEAN_MOTION":15.02539886,"ECCENTRICITY":0.000124,"INCLINATION":43.002,"RA_OF_ASC_NODE":159.8863,"ARG_OF_PERICENTER":269.5091,"MEAN_ANOMALY":90.5609,"EPHEMERIS_TYPE":0,"CLASSIFICATION_TYPE":"U","NORAD_CAT_ID":56699,"ELEMENT_SET_NO":999,"REV_AT_EPOCH":2927,"BSTAR":0.00018349,"MEAN_MOTION_DOT":2.276e-5,"MEAN_MOTION_DDOT":0},{"OBJECT_NAME":"STARLINK-30053","OBJECT_ID":"2023-067N","EPOCH":"2023-11-20T05:45:59.566464","MEAN_MOTION":15.02543514,"ECCENTRICITY":0.0001429,"INCLINATION":43.0018,"RA_OF_ASC_NODE":161.3069,"ARG_OF_PERICENTER":268.0014,"MEAN_ANOMALY":92.0665,"EPHEMERIS_TYPE":0,"CLASSIFICATION_TYPE":"U","NORAD_CAT_ID":56700,"ELEMENT_SET_NO":999,"REV_AT_EPOCH":2923,"BSTAR":0.00024024,"MEAN_MOTION_DOT":3.044e-5,"MEAN_MOTION_DDOT":0},{"OBJECT_NAME":"STARLINK-30125","OBJECT_ID":"2023-067P","EPOCH":"2023-11-20T05:41:12.047136","MEAN_MOTION":15.02538186,"ECCENTRICITY":0.0001274,"INCLINATION":43.0017,"RA_OF_ASC_NODE":161.2819,"ARG_OF_PERICENTER":268.733,"MEAN_ANOMALY":91.3367,"EPHEMERIS_TYPE":0,"CLASSIFICATION_TYPE":"U","NORAD_CAT_ID":56701,"ELEMENT_SET_NO":999,"REV_AT_EPOCH":2923,"BSTAR":9.2099e-5,"MEAN_MOTION_DOT":1.041e-5,"MEAN_MOTION_DDOT":0},{"OBJECT_NAME":"STARLINK-30117","OBJECT_ID":"2023-067Q","EPOCH":"2023-11-20T12:56:50.597664","MEAN_MOTION":15.02537756,"ECCENTRICITY":0.0001164,"INCLINATION":43.0031,"RA_OF_ASC_NODE":160.0454,"ARG_OF_PERICENTER":271.4211,"MEAN_ANOMALY":88.6498,"EPHEMERIS_TYPE":0,"CLASSIFICATION_TYPE":"U","NORAD_CAT_ID":56702,"ELEMENT_SET_NO":999,"REV_AT_EPOCH":2927,"BSTAR":7.1878e-5,"MEAN_MOTION_DOT":7.68e-6,"MEAN_MOTION_DDOT":0},{"OBJECT_NAME":"STARLINK-30132","OBJECT_ID":"2023-067R","EPOCH":"2023-11-20T13:35:02.577120","MEAN_MOTION":15.02541525,"ECCENTRICITY":0.0001085,"INCLINATION":43.0027,"RA_OF_ASC_NODE":159.4487,"ARG_OF_PERICENTER":275.4395,"MEAN_ANOMALY":84.6323,"EPHEMERIS_TYPE":0,"CLASSIFICATION_TYPE":"U","NORAD_CAT_ID":56703,"ELEMENT_SET_NO":999,"REV_AT_EPOCH":2928,"BSTAR":0.00015359,"MEAN_MOTION_DOT":1.872e-5,"MEAN_MOTION_DDOT":0},{"OBJECT_NAME":"STARLINK-30066","OBJECT_ID":"2023-067S","EPOCH":"2023-11-20T13:06:16.206624","MEAN_MOTION":15.02538955,"ECCENTRICITY":0.0001205,"INCLINATION":43.0009,"RA_OF_ASC_NODE":159.2909,"ARG_OF_PERICENTER":272.5763,"MEAN_ANOMALY":87.4941,"EPHEMERIS_TYPE":0,"CLASSIFICATION_TYPE":"U","NORAD_CAT_ID":56704,"ELEMENT_SET_NO":999,"REV_AT_EPOCH":2928,"BSTAR":9.362e-5,"MEAN_MOTION_DOT":1.061e-5,"MEAN_MOTION_DDOT":0},{"OBJECT_NAME":"STARLINK-30080","OBJECT_ID":"2023-067T","EPOCH":"2023-11-20T13:21:02.524608","MEAN_MOTION":15.02539641,"ECCENTRICITY":0.000118,"INCLINATION":43.0029,"RA_OF_ASC_NODE":146.4492,"ARG_OF_PERICENTER":272.8559,"MEAN_ANOMALY":87.2148,"EPHEMERIS_TYPE":0,"CLASSIFICATION_TYPE":"U","NORAD_CAT_ID":56705,"ELEMENT_SET_NO":999,"REV_AT_EPOCH":2943,"BSTAR":9.6458e-5,"MEAN_MOTION_DOT":1.1e-5,"MEAN_MOTION_DDOT":0},{"OBJECT_NAME":"STARLINK-30079","OBJECT_ID":"2023-067U","EPOCH":"2023-11-20T13:25:27.597216","MEAN_MOTION":15.02538624,"ECCENTRICITY":0.0001144,"INCLINATION":43.0028,"RA_OF_ASC_NODE":159.3978,"ARG_OF_PERICENTER":263.013,"MEAN_ANOMALY":97.0582,"EPHEMERIS_TYPE":0,"CLASSIFICATION_TYPE":"U","NORAD_CAT_ID":56706,"ELEMENT_SET_NO":999,"REV_AT_EPOCH":2928,"BSTAR":0.00020215,"MEAN_MOTION_DOT":2.528e-5,"MEAN_MOTION_DDOT":0},{"OBJECT_NAME":"STARLINK-30070","OBJECT_ID":"2023-067V","EPOCH":"2023-11-20T00:44:25.054656","MEAN_MOTION":15.02543576,"ECCENTRICITY":0.0001167,"INCLINATION":43.0027,"RA_OF_ASC_NODE":162.3134,"ARG_OF_PERICENTER":273.3063,"MEAN_ANOMALY":86.7646,"EPHEMERIS_TYPE":0,"CLASSIFICATION_TYPE":"U","NORAD_CAT_ID":56707,"ELEMENT_SET_NO":999,"REV_AT_EPOCH":2920,"BSTAR":9.5733e-5,"MEAN_MOTION_DOT":1.09e-5,"MEAN_MOTION_DDOT":0}]
