STARLINK-30124          
1 56690U 23067C   23324.26358010  .00000819  00000+0  75709-4 0  9992
2 56690  43.0027 161.4645 0001267 269.1294  90.9403 15.02539298 29235
STARLINK-30087          
1 56691U 23067D   23324.54122393  .00023633  00000+0  12617-2 0  9993
2 56691  43.0009 154.2028 0011941 280.9047  79.0456 15.14645936 29346
STARLINK-30036          
1 56692U 23067E   23324.52283402  .00001200  00000+0  10388-3 0  9991
2 56692  43.0029 159.9869 0001212 272.8260  87.2444 15.02536901 28144
STARLINK-30067          
1 56693U 23067F   23324.25026400  .00001139  00000+0  99353-4 0  9996
2 56693  43.0032 161.3818 0001232 270.8288  89.2413 15.02539538 29238
STARLINK-30126          
1 56694U 23067G   23324.51950684  .00000700  00000+0  66868-4 0  9994
2 56694  43.0032 159.9616 0001218 268.6891  91.3812 15.02538216 29270
STARLINK-30121          
1 56695U 23067H   23323.98101863 -.00000362  00000+0 -11707-4 0  9990
2 56695  43.0014 162.7862 0001325 259.6509 100.4184 15.02546950 29190
STARLINK-30130          
1 56697U 23067K   23324.55268309  .00002129  00000+0  17259-3 0  9993
2 56697  43.0021 159.3472 0001238 273.0011  87.0690 15.02540910 29024
STARLINK-30068          
1 56698U 23067L   23324.49312261 -.00000633  00000+0 -31804-4 0  9997
2 56698  43.0032 146.7706 0001192 269.1787  90.8918 15.02547759 29160
STARLINK-30127          
1 56699U 23067M   23324.50951265  .00002276  00000+0  18349-3 0  9994
2 56699  43.0020 159.8863 0001240 269.5091  90.5609 15.02539886 29271
STARLINK-30053          
1 56700U 23067N   23324.24027276  .00003044  00000+0  24024-3 0  9995
2 56700  43.0018 161.3069 0001429 268.0014  92.0665 15.02543514 29233
STARLINK-30125          
1 56701U 23067P   23324.23694499  .00001041  00000+0  92099-4 0  9995
2 56701  43.0017 161.2819 0001274 268.7330  91.3367 15.02538186 29231
STARLINK-30117          
1 56702U 23067Q   23324.53947451  .00000768  00000+0  71878-4 0  9995
2 56702  43.0031 160.0454 0001164 271.4211  88.6498 15.02537756 29277
STARLINK-30132          
1 56703U 23067R   23324.56600205  .00001872  00000+0  15359-3 0  9990
2 56703  43.0027 159.4487 0001085 275.4395  84.6323 15.02541525 29283
STARLINK-30066          
1 56704U 23067S   23324.54602091  .00001061  00000+0  93620-4 0  9992
2 56704  43.0009 159.2909 0001205 272.5763  87.4941 15.02538955 29282
STARLINK-30080          
1 56705U 23067T   23324.55627922  .00001100  00000+0  96458-4 0  9990
2 56705  43.0029 146.4492 0001180 272.8559  87.2148 15.02539641 29435
STARLINK-30079          
1 56706U 23067U   23324.55934719  .00002528  00000+0  20215-3 0  9998
2 56706  43.0028 159.3978 0001144 263.0130  97.0582 15.02538624 29288
STARLINK-30070          
1 56707U 23067V   23324.03084554  .00001090  00000+0  95733-4 0  9996
2 56707  43.0027 162.3134 0001167 273.3063  86.7646 15.02543576 29200
